start=new Date('2022-11-28T00:00:00.000Z').valueOf();
sats=[{"MEAN_ANOMALY":"302.1007","EPHEMERIS_TYPE":"0","CLASSIFICATION_TYPE":"U","OBJECT_ID":"2021-017AM","ELEMENT_SET_NO":"999","ARG_OF_PERICENTER":"58.0150","RCS_SIZE":"LARGE","OBJECT_NAME":"STARLINK-2175","REF_FRAME":"TEME","LAUNCH_DATE":"2021-03-04","INCLINATION":"53.0524","ECCENTRICITY":"0.00017330","MEAN_MOTION":"15.06397705","BSTAR":"-0.00007168300000","MEAN_MOTION_DOT":"-0.00001349","TLE_LINE2":"2 47757  53.0524 188.7662 0001733  58.0150 302.1007 15.06397705 97183","PERIAPSIS":"546.020","NORAD_CAT_ID":"47757","TLE_LINE1":"1 47757U 21017AM  22331.88479073 -.00001349  00000-0 -71683-4 0  9996","DECAY_DATE":null,"SITE":"AFETR","MEAN_MOTION_DDOT":"0.0000000000000","SEMIMAJOR_AXIS":"6925.356","PERIOD":"95.592","FILE":"3671921","CENTER_NAME":"EARTH","OBJECT_TYPE":"PAYLOAD","EPOCH":"2022-11-27T21:14:05.919072","TIME_SYSTEM":"UTC","REV_AT_EPOCH":"9718","APOAPSIS":"548.421","MEAN_ELEMENT_THEORY":"SGP4","COUNTRY_CODE":"US","GP_ID":"218989860","RA_OF_ASC_NODE":"188.7662"},{"EPOCH":"2022-11-27T22:00:32.254272","TIME_SYSTEM":"UTC","MEAN_ELEMENT_THEORY":"SGP4","APOAPSIS":"548.487","REV_AT_EPOCH":"9708","OBJECT_TYPE":"PAYLOAD","CENTER_NAME":"EARTH","COUNTRY_CODE":"US","GP_ID":"218990112","RA_OF_ASC_NODE":"198.6362","DECAY_DATE":null,"SITE":"AFETR","MEAN_MOTION_DDOT":"0.0000000000000","SEMIMAJOR_AXIS":"6925.353","NORAD_CAT_ID":"47760","TLE_LINE1":"1 47760U 21017AQ  22331.91703998 -.00001230  00000-0 -63674-4 0  9990","FILE":"3671921","PERIOD":"95.592","BSTAR":"-0.00006367400000","TLE_LINE2":"2 47760  53.0541 198.6362 0001832  57.1844 302.9321 15.06398420 97084","MEAN_MOTION_DOT":"-0.00001230","INCLINATION":"53.0541","LAUNCH_DATE":"2021-03-04","MEAN_MOTION":"15.06398420","ECCENTRICITY":"0.00018320","PERIAPSIS":"545.950","OBJECT_ID":"2021-017AQ","EPHEMERIS_TYPE":"0","CLASSIFICATION_TYPE":"U","ELEMENT_SET_NO":"999","MEAN_ANOMALY":"302.9321","OBJECT_NAME":"STARLINK-2178","REF_FRAME":"TEME","RCS_SIZE":"LARGE","ARG_OF_PERICENTER":"57.1844"},{"NORAD_CAT_ID":"47761","TLE_LINE1":"1 47761U 21017AR  22331.88110753  .00000294  00000-0  38652-4 0  9993","SITE":"AFETR","DECAY_DATE":null,"MEAN_MOTION_DDOT":"0.0000000000000","SEMIMAJOR_AXIS":"6925.359","PERIOD":"95.592","FILE":"3671921","CENTER_NAME":"EARTH","OBJECT_TYPE":"PAYLOAD","EPOCH":"2022-11-27T21:08:47.690592","TIME_SYSTEM":"UTC","REV_AT_EPOCH":"9719","MEAN_ELEMENT_THEORY":"SGP4","APOAPSIS":"548.327","COUNTRY_CODE":"US","GP_ID":"218990362","RA_OF_ASC_NODE":"188.7951","MEAN_ANOMALY":"274.8186","CLASSIFICATION_TYPE":"U","EPHEMERIS_TYPE":"0","OBJECT_ID":"2021-017AR","ELEMENT_SET_NO":"999","ARG_OF_PERICENTER":"85.2985","RCS_SIZE":"LARGE","OBJECT_NAME":"STARLINK-2179","REF_FRAME":"TEME","LAUNCH_DATE":"2021-03-04","INCLINATION":"53.0544","ECCENTRICITY":"0.00015920","MEAN_MOTION":"15.06396561","BSTAR":"0.00003865200000","MEAN_MOTION_DOT":"0.00000294","TLE_LINE2":"2 47761  53.0544 188.7951 0001592  85.2985 274.8186 15.06396561 97195","PERIAPSIS":"546.122"},{"APOAPSIS":"548.834","MEAN_ELEMENT_THEORY":"SGP4","REV_AT_EPOCH":"9700","EPOCH":"2022-11-27T21:46:36.602112","TIME_SYSTEM":"UTC","OBJECT_TYPE":"PAYLOAD","CENTER_NAME":"EARTH","RA_OF_ASC_NODE":"203.6957","GP_ID":"218989610","COUNTRY_CODE":"US","SEMIMAJOR_AXIS":"6925.348","DECAY_DATE":null,"SITE":"AFETR","MEAN_MOTION_DDOT":"0.0000000000000","TLE_LINE1":"1 47762U 21017AS  22331.90736808 -.00000999  00000-0 -48181-4 0  9994","NORAD_CAT_ID":"47762","FILE":"3671921","PERIOD":"95.592","MEAN_MOTION_DOT":"-0.00000999","TLE_LINE2":"2 47762  53.0536 203.6957 0002341  44.9702 315.1476 15.06400129 97009","BSTAR":"-0.00004818100000","MEAN_MOTION":"15.06400129","ECCENTRICITY":"0.00023410","INCLINATION":"53.0536","LAUNCH_DATE":"2021-03-04","PERIAPSIS":"545.592","ELEMENT_SET_NO":"999","OBJECT_ID":"2021-017AS","CLASSIFICATION_TYPE":"U","EPHEMERIS_TYPE":"0","MEAN_ANOMALY":"315.1476","REF_FRAME":"TEME","OBJECT_NAME":"STARLINK-2180","RCS_SIZE":"LARGE","ARG_OF_PERICENTER":"44.9702"},{"TLE_LINE1":"1 47763U 21017AT  22331.92309417 -.00008447  00000-0 -54976-3 0  9993","NORAD_CAT_ID":"47763","SEMIMAJOR_AXIS":"6925.545","DECAY_DATE":null,"SITE":"AFETR","MEAN_MOTION_DDOT":"0.0000000000000","PERIOD":"95.596","FILE":"3671921","CENTER_NAME":"EARTH","OBJECT_TYPE":"PAYLOAD","REV_AT_EPOCH":"9712","MEAN_ELEMENT_THEORY":"SGP4","APOAPSIS":"548.769","EPOCH":"2022-11-27T22:09:15.336288","TIME_SYSTEM":"UTC","RA_OF_ASC_NODE":"193.6030","COUNTRY_CODE":"US","GP_ID":"218989361","MEAN_ANOMALY":"305.4206","ELEMENT_SET_NO":"999","CLASSIFICATION_TYPE":"U","EPHEMERIS_TYPE":"0","OBJECT_ID":"2021-017AT","ARG_OF_PERICENTER":"54.6966","RCS_SIZE":"LARGE","REF_FRAME":"TEME","OBJECT_NAME":"STARLINK-2181","ECCENTRICITY":"0.00019630","MEAN_MOTION":"15.06336060","LAUNCH_DATE":"2021-03-04","INCLINATION":"53.0530","TLE_LINE2":"2 47763  53.0530 193.6030 0001963  54.6966 305.4206 15.06336060 97121","MEAN_MOTION_DOT":"-0.00008447","BSTAR":"-0.00054976000000","PERIAPSIS":"546.050"},{"ARG_OF_PERICENTER":"60.4276","RCS_SIZE":"LARGE","REF_FRAME":"TEME","OBJECT_NAME":"STARLINK-2182","MEAN_ANOMALY":"299.6894","ELEMENT_SET_NO":"999","EPHEMERIS_TYPE":"0","CLASSIFICATION_TYPE":"U","OBJECT_ID":"2021-017AU","PERIAPSIS":"545.958","ECCENTRICITY":"0.00018220","MEAN_MOTION":"15.06397899","LAUNCH_DATE":"2021-03-04","INCLINATION":"53.0531","TLE_LINE2":"2 47764  53.0531 206.1269 0001822  60.4276 299.6894 15.06397899 96954","MEAN_MOTION_DOT":"-0.00000684","BSTAR":"-0.00002701800000","FILE":"3671616","PERIOD":"95.592","TLE_LINE1":"1 47764U 21017AU  22331.36185048 -.00000684  00000-0 -27018-4 0  9997","NORAD_CAT_ID":"47764","SEMIMAJOR_AXIS":"6925.355","DECAY_DATE":null,"SITE":"AFETR","MEAN_MOTION_DDOT":"0.0000000000000","RA_OF_ASC_NODE":"206.1269","COUNTRY_CODE":"US","GP_ID":"218956110","CENTER_NAME":"EARTH","OBJECT_TYPE":"PAYLOAD","REV_AT_EPOCH":"9695","APOAPSIS":"548.482","MEAN_ELEMENT_THEORY":"SGP4","EPOCH":"2022-11-27T08:41:03.881472","TIME_SYSTEM":"UTC"},{"COUNTRY_CODE":"US","GP_ID":"218990862","RA_OF_ASC_NODE":"203.6591","CENTER_NAME":"EARTH","OBJECT_TYPE":"PAYLOAD","TIME_SYSTEM":"UTC","EPOCH":"2022-11-27T21:50:33.141120","REV_AT_EPOCH":"9697","APOAPSIS":"548.548","MEAN_ELEMENT_THEORY":"SGP4","PERIOD":"95.592","FILE":"3671921","NORAD_CAT_ID":"47766","TLE_LINE1":"1 47766U 21017AW  22331.91010580  .00000190  00000-0  31667-4 0  9993","DECAY_DATE":null,"SITE":"AFETR","MEAN_MOTION_DDOT":"0.0000000000000","SEMIMAJOR_AXIS":"6925.348","PERIAPSIS":"545.879","LAUNCH_DATE":"2021-03-04","INCLINATION":"53.0537","ECCENTRICITY":"0.00019270","MEAN_MOTION":"15.06400067","BSTAR":"0.00003166700000","MEAN_MOTION_DOT":"0.00000190","TLE_LINE2":"2 47766  53.0537 203.6591 0001927  51.1579 308.9582 15.06400067 96973","ARG_OF_PERICENTER":"51.1579","RCS_SIZE":"LARGE","OBJECT_NAME":"STARLINK-2184","REF_FRAME":"TEME","MEAN_ANOMALY":"308.9582","CLASSIFICATION_TYPE":"U","EPHEMERIS_TYPE":"0","OBJECT_ID":"2021-017AW","ELEMENT_SET_NO":"999"},{"NORAD_CAT_ID":"47767","TLE_LINE1":"1 47767U 21017AX  22331.87005446 -.00001590  00000-0 -87856-4 0  9992","DECAY_DATE":null,"SITE":"AFETR","MEAN_MOTION_DDOT":"0.0000000000000","SEMIMAJOR_AXIS":"6925.380","PERIOD":"95.593","FILE":"3671921","OBJECT_TYPE":"PAYLOAD","CENTER_NAME":"EARTH","TIME_SYSTEM":"UTC","EPOCH":"2022-11-27T20:52:52.705344","APOAPSIS":"548.426","MEAN_ELEMENT_THEORY":"SGP4","REV_AT_EPOCH":"9724","GP_ID":"218989111","COUNTRY_CODE":"US","RA_OF_ASC_NODE":"188.8494","MEAN_ANOMALY":"297.7451","OBJECT_ID":"2021-017AX","CLASSIFICATION_TYPE":"U","EPHEMERIS_TYPE":"0","ELEMENT_SET_NO":"999","RCS_SIZE":"LARGE","ARG_OF_PERICENTER":"62.3711","OBJECT_NAME":"STARLINK-2185","REF_FRAME":"TEME","INCLINATION":"53.0548","LAUNCH_DATE":"2021-03-04","MEAN_MOTION":"15.06389896","ECCENTRICITY":"0.00017060","BSTAR":"-0.00008785600000","MEAN_MOTION_DOT":"-0.00001590","TLE_LINE2":"2 47767  53.0548 188.8494 0001706  62.3711 297.7451 15.06389896 97246","PERIAPSIS":"546.063"},{"OBJECT_ID":"2021-017AY","CLASSIFICATION_TYPE":"U","EPHEMERIS_TYPE":"0","ELEMENT_SET_NO":"999","MEAN_ANOMALY":"302.3538","OBJECT_NAME":"STARLINK-2189","REF_FRAME":"TEME","RCS_SIZE":"LARGE","ARG_OF_PERICENTER":"57.7639","BSTAR":"-0.00001041500000","MEAN_MOTION_DOT":"-0.00000437","TLE_LINE2":"2 47768  53.0540 204.0588 0001950  57.7639 302.3538 15.06404215 97008","INCLINATION":"53.0540","LAUNCH_DATE":"2021-03-04","MEAN_MOTION":"15.06404215","ECCENTRICITY":"0.00019500","PERIAPSIS":"545.850","DECAY_DATE":null,"SITE":"AFETR","MEAN_MOTION_DDOT":"0.0000000000000","SEMIMAJOR_AXIS":"6925.336","NORAD_CAT_ID":"47768","TLE_LINE1":"1 47768U 21017AY  22331.91109837 -.00000437  00000-0 -10415-4 0  9993","FILE":"3671921","PERIOD":"95.592","EPOCH":"2022-11-27T21:51:58.899168","TIME_SYSTEM":"UTC","APOAPSIS":"548.551","MEAN_ELEMENT_THEORY":"SGP4","REV_AT_EPOCH":"9700","OBJECT_TYPE":"PAYLOAD","CENTER_NAME":"EARTH","COUNTRY_CODE":"US","GP_ID":"218989861","RA_OF_ASC_NODE":"204.0588"},{"NORAD_CAT_ID":"47769","TLE_LINE1":"1 47769U 21017AZ  22331.85346533 -.00000033  00000-0  16711-4 0  9999","DECAY_DATE":null,"SITE":"AFETR","MEAN_MOTION_DDOT":"0.0000000000000","SEMIMAJOR_AXIS":"6925.369","FILE":"3671921","PERIOD":"95.593","CENTER_NAME":"EARTH","OBJECT_TYPE":"PAYLOAD","TIME_SYSTEM":"UTC","EPOCH":"2022-11-27T20:28:59.404512","REV_AT_EPOCH":"9751","APOAPSIS":"548.472","MEAN_ELEMENT_THEORY":"SGP4","GP_ID":"218990113","COUNTRY_CODE":"US","RA_OF_ASC_NODE":"168.9237","MEAN_ANOMALY":"298.9083","CLASSIFICATION_TYPE":"U","EPHEMERIS_TYPE":"0","OBJECT_ID":"2021-017AZ","ELEMENT_SET_NO":"999","ARG_OF_PERICENTER":"61.2085","RCS_SIZE":"LARGE","OBJECT_NAME":"STARLINK-2192","REF_FRAME":"TEME","LAUNCH_DATE":"2021-03-04","INCLINATION":"53.0526","ECCENTRICITY":"0.00017880","MEAN_MOTION":"15.06393403","BSTAR":"0.00001671100000","TLE_LINE2":"2 47769  53.0526 168.9237 0001788  61.2085 298.9083 15.06393403 97513","MEAN_MOTION_DOT":"-0.00000033","PERIAPSIS":"545.996"}];
